start=new Date('2022-03-02T00:00:00.000Z').valueOf();
sats=[{"SEMIMAJOR_AXIS":"6925.368","TIME_SYSTEM":"UTC","INCLINATION":"53.0518","REV_AT_EPOCH":"11916","CLASSIFICATION_TYPE":"U","OBJECT_ID":"2020-001E","EPHEMERIS_TYPE":"0","TLE_LINE1":"1 44918U 20001E   22060.61117973 -.00002283  00000-0 -13443-3 0  9999","COUNTRY_CODE":"US","PERIAPSIS":"546.048","MEAN_MOTION_DDOT":"0.0000000000000","TLE_LINE2":"2 44918  53.0518 101.5729 0001710  60.6901 299.4258 15.06393783119168","ELEMENT_SET_NO":"999","EPOCH":"2022-03-01T14:40:05.928672","MEAN_MOTION_DOT":"-0.00002283","NORAD_CAT_ID":"44918","PERIOD":"95.593","ECCENTRICITY":"0.00017100","REF_FRAME":"TEME","ARG_OF_PERICENTER":"60.6901","OBJECT_NAME":"STARLINK-1099","CENTER_NAME":"EARTH","MEAN_MOTION":"15.06393783","RA_OF_ASC_NODE":"101.5729","LAUNCH_DATE":"2020-01-07","FILE":"3338635","BSTAR":"-0.00013443000000","SITE":"AFETR","MEAN_ANOMALY":"299.4258","GP_ID":"197540028","OBJECT_TYPE":"PAYLOAD","APOAPSIS":"548.417","RCS_SIZE":"LARGE","DECAY_DATE":null,"MEAN_ELEMENT_THEORY":"SGP4"},{"ELEMENT_SET_NO":"999","TLE_LINE2":"2 44920  53.0531 100.6103 0001721  58.2353 301.8803 15.06405409118452","MEAN_MOTION_DOT":"0.00006100","EPOCH":"2022-03-01T19:47:57.210144","NORAD_CAT_ID":"44920","REF_FRAME":"TEME","PERIOD":"95.592","ECCENTRICITY":"0.00017210","REV_AT_EPOCH":"11845","INCLINATION":"53.0531","TIME_SYSTEM":"UTC","SEMIMAJOR_AXIS":"6925.332","OBJECT_ID":"2020-001G","CLASSIFICATION_TYPE":"U","PERIAPSIS":"546.005","COUNTRY_CODE":"US","TLE_LINE1":"1 44920U 20001G   22060.82496771  .00006100  00000-0  42797-3 0  9995","EPHEMERIS_TYPE":"0","MEAN_MOTION_DDOT":"0.0000000000000","BSTAR":"0.00042797000000","FILE":"3338635","OBJECT_TYPE":"PAYLOAD","GP_ID":"197540280","MEAN_ANOMALY":"301.8803","SITE":"AFETR","DECAY_DATE":null,"RCS_SIZE":"LARGE","APOAPSIS":"548.389","MEAN_ELEMENT_THEORY":"SGP4","OBJECT_NAME":"STARLINK-1102","CENTER_NAME":"EARTH","ARG_OF_PERICENTER":"58.2353","MEAN_MOTION":"15.06405409","RA_OF_ASC_NODE":"100.6103","LAUNCH_DATE":"2020-01-07"},{"LAUNCH_DATE":"2020-01-07","RA_OF_ASC_NODE":"101.6925","MEAN_MOTION":"15.06395418","ARG_OF_PERICENTER":"65.2505","OBJECT_NAME":"STARLINK-1103","CENTER_NAME":"EARTH","MEAN_ELEMENT_THEORY":"SGP4","DECAY_DATE":null,"RCS_SIZE":"LARGE","APOAPSIS":"548.226","OBJECT_TYPE":"PAYLOAD","SITE":"AFETR","MEAN_ANOMALY":"294.8634","GP_ID":"197540531","FILE":"3338635","BSTAR":"-0.00002580900000","MEAN_MOTION_DDOT":"0.0000000000000","COUNTRY_CODE":"US","TLE_LINE1":"1 44921U 20001H   22060.58169343 -.00000666  00000-0 -25809-4 0  9990","EPHEMERIS_TYPE":"0","PERIAPSIS":"546.229","OBJECT_ID":"2020-001H","CLASSIFICATION_TYPE":"U","INCLINATION":"53.0530","REV_AT_EPOCH":"11839","SEMIMAJOR_AXIS":"6925.363","TIME_SYSTEM":"UTC","REF_FRAME":"TEME","ECCENTRICITY":"0.00014420","PERIOD":"95.592","NORAD_CAT_ID":"44921","EPOCH":"2022-03-01T13:57:38.312352","MEAN_MOTION_DOT":"-0.00000666","ELEMENT_SET_NO":"999","TLE_LINE2":"2 44921  53.0530 101.6925 0001442  65.2505 294.8634 15.06395418118396"},{"ELEMENT_SET_NO":"999","TLE_LINE2":"2 44922  53.0534 100.6472 0001696  61.0588 299.0571 15.06398248118451","MEAN_MOTION_DOT":"0.00000289","EPOCH":"2022-03-01T19:32:01.353120","NORAD_CAT_ID":"44922","REF_FRAME":"TEME","PERIOD":"95.592","ECCENTRICITY":"0.00016960","REV_AT_EPOCH":"11845","INCLINATION":"53.0534","TIME_SYSTEM":"UTC","SEMIMAJOR_AXIS":"6925.354","OBJECT_ID":"2020-001J","CLASSIFICATION_TYPE":"U","PERIAPSIS":"546.044","COUNTRY_CODE":"US","TLE_LINE1":"1 44922U 20001J   22060.81390455  .00000289  00000-0  38288-4 0  9991","EPHEMERIS_TYPE":"0","MEAN_MOTION_DDOT":"0.0000000000000","BSTAR":"0.00003828800000","FILE":"3338635","OBJECT_TYPE":"PAYLOAD","GP_ID":"197539279","MEAN_ANOMALY":"299.0571","SITE":"AFETR","RCS_SIZE":"LARGE","DECAY_DATE":null,"APOAPSIS":"548.393","MEAN_ELEMENT_THEORY":"SGP4","CENTER_NAME":"EARTH","OBJECT_NAME":"STARLINK-1104","ARG_OF_PERICENTER":"61.0588","MEAN_MOTION":"15.06398248","RA_OF_ASC_NODE":"100.6472","LAUNCH_DATE":"2020-01-07"},{"CENTER_NAME":"EARTH","OBJECT_NAME":"STARLINK-1106","ARG_OF_PERICENTER":"60.1483","MEAN_MOTION":"15.06389636","RA_OF_ASC_NODE":"100.5389","LAUNCH_DATE":"2020-01-07","BSTAR":"0.00007885400000","FILE":"3338635","GP_ID":"197539529","MEAN_ANOMALY":"299.9682","SITE":"AFETR","OBJECT_TYPE":"PAYLOAD","APOAPSIS":"548.471","RCS_SIZE":"LARGE","DECAY_DATE":null,"MEAN_ELEMENT_THEORY":"SGP4","TIME_SYSTEM":"UTC","SEMIMAJOR_AXIS":"6925.380","INCLINATION":"53.0552","REV_AT_EPOCH":"11845","CLASSIFICATION_TYPE":"U","OBJECT_ID":"2020-001K","PERIAPSIS":"546.020","COUNTRY_CODE":"US","TLE_LINE1":"1 44923U 20001K   22060.83971600  .00000893  00000-0  78854-4 0  9995","EPHEMERIS_TYPE":"0","MEAN_MOTION_DDOT":"0.0000000000000","TLE_LINE2":"2 44923  53.0552 100.5389 0001770  60.1483 299.9682 15.06389636118458","ELEMENT_SET_NO":"999","MEAN_MOTION_DOT":"0.00000893","EPOCH":"2022-03-01T20:09:11.462400","NORAD_CAT_ID":"44923","PERIOD":"95.593","ECCENTRICITY":"0.00017700","REF_FRAME":"TEME"},{"NORAD_CAT_ID":"44924","REF_FRAME":"TEME","PERIOD":"95.592","ECCENTRICITY":"0.00016060","ELEMENT_SET_NO":"999","TLE_LINE2":"2 44924  53.0534 100.5939 0001606  64.9776 295.1380 15.06406592118459","MEAN_MOTION_DOT":"0.00002500","EPOCH":"2022-03-01T19:53:14.745696","PERIAPSIS":"546.081","COUNTRY_CODE":"US","TLE_LINE1":"1 44924U 20001L   22060.82864289  .00002500  00000-0  18662-3 0  9996","EPHEMERIS_TYPE":"0","MEAN_MOTION_DDOT":"0.0000000000000","REV_AT_EPOCH":"11845","INCLINATION":"53.0534","TIME_SYSTEM":"UTC","SEMIMAJOR_AXIS":"6925.328","OBJECT_ID":"2020-001L","CLASSIFICATION_TYPE":"U","RCS_SIZE":"LARGE","DECAY_DATE":null,"APOAPSIS":"548.306","MEAN_ELEMENT_THEORY":"SGP4","BSTAR":"0.00018662000000","FILE":"3338635","OBJECT_TYPE":"PAYLOAD","GP_ID":"197540780","SITE":"AFETR","MEAN_ANOMALY":"295.1380","RA_OF_ASC_NODE":"100.5939","LAUNCH_DATE":"2020-01-07","OBJECT_NAME":"STARLINK-1111","CENTER_NAME":"EARTH","ARG_OF_PERICENTER":"64.9776","MEAN_MOTION":"15.06406592"},{"RA_OF_ASC_NODE":"101.7106","LAUNCH_DATE":"2020-01-07","ARG_OF_PERICENTER":"53.1121","CENTER_NAME":"EARTH","OBJECT_NAME":"STARLINK-1112","MEAN_MOTION":"15.06401049","APOAPSIS":"548.314","RCS_SIZE":"LARGE","DECAY_DATE":null,"MEAN_ELEMENT_THEORY":"SGP4","FILE":"3338635","BSTAR":"0.00012712000000","MEAN_ANOMALY":"307.0014","SITE":"AFETR","GP_ID":"197541031","OBJECT_TYPE":"PAYLOAD","TLE_LINE1":"1 44925U 20001M   22060.57800671  .00001612  00000-0  12712-3 0  9997","EPHEMERIS_TYPE":"0","COUNTRY_CODE":"US","PERIAPSIS":"546.107","MEAN_MOTION_DDOT":"0.0000000000000","SEMIMAJOR_AXIS":"6925.345","TIME_SYSTEM":"UTC","REV_AT_EPOCH":"11841","INCLINATION":"53.0532","CLASSIFICATION_TYPE":"U","OBJECT_ID":"2020-001M","NORAD_CAT_ID":"44925","ECCENTRICITY":"0.00015930","PERIOD":"95.592","REF_FRAME":"TEME","TLE_LINE2":"2 44925  53.0532 101.7106 0001593  53.1121 307.0014 15.06401049118411","ELEMENT_SET_NO":"999","EPOCH":"2022-03-01T13:52:19.779744","MEAN_MOTION_DOT":"0.00001612"},{"LAUNCH_DATE":"2020-01-07","RA_OF_ASC_NODE":"101.9398","MEAN_MOTION":"15.05591564","OBJECT_NAME":"STARLINK-1113","CENTER_NAME":"EARTH","ARG_OF_PERICENTER":"64.9340","MEAN_ELEMENT_THEORY":"SGP4","APOAPSIS":"550.680","RCS_SIZE":"LARGE","DECAY_DATE":null,"GP_ID":"197511073","SITE":"AFETR","MEAN_ANOMALY":"295.1796","OBJECT_TYPE":"PAYLOAD","BSTAR":"-0.00007299800000","FILE":"3338141","MEAN_MOTION_DDOT":"0.0000000000000","PERIAPSIS":"548.704","EPHEMERIS_TYPE":"0","TLE_LINE1":"1 44926U 20001N   22060.52887603 -.00001343  00000-0 -72998-4 0  9999","COUNTRY_CODE":"US","CLASSIFICATION_TYPE":"U","OBJECT_ID":"2020-001N","TIME_SYSTEM":"UTC","SEMIMAJOR_AXIS":"6927.827","REV_AT_EPOCH":"11911","INCLINATION":"53.0013","PERIOD":"95.643","ECCENTRICITY":"0.00014260","REF_FRAME":"TEME","NORAD_CAT_ID":"44926","MEAN_MOTION_DOT":"-0.00001343","EPOCH":"2022-03-01T12:41:34.888992","TLE_LINE2":"2 44926  53.0013 101.9398 0001426  64.9340 295.1796 15.05591564119112","ELEMENT_SET_NO":"999"},{"OBJECT_TYPE":"PAYLOAD","SITE":"AFETR","MEAN_ANOMALY":"295.5506","GP_ID":"197510705","FILE":"3338143","BSTAR":"0.00036627000000","MEAN_ELEMENT_THEORY":"SGP4","DECAY_DATE":null,"RCS_SIZE":"LARGE","APOAPSIS":"548.374","MEAN_MOTION":"15.06384273","ARG_OF_PERICENTER":"64.5649","CENTER_NAME":"EARTH","OBJECT_NAME":"STARLINK-1114","LAUNCH_DATE":"2020-01-07","RA_OF_ASC_NODE":"101.9560","EPOCH":"2022-03-01T12:32:43.092672","MEAN_MOTION_DOT":"0.00005176","ELEMENT_SET_NO":"999","TLE_LINE2":"2 44927  53.0539 101.9560 0001606  64.5649 295.5506 15.06384273118418","REF_FRAME":"TEME","PERIOD":"95.593","ECCENTRICITY":"0.00016060","NORAD_CAT_ID":"44927","OBJECT_ID":"2020-001P","CLASSIFICATION_TYPE":"U","REV_AT_EPOCH":"11841","INCLINATION":"53.0539","SEMIMAJOR_AXIS":"6925.397","TIME_SYSTEM":"UTC","MEAN_MOTION_DDOT":"0.0000000000000","COUNTRY_CODE":"US","TLE_LINE1":"1 44927U 20001P   22060.52272098  .00005176  00000-0  36627-3 0  9990","EPHEMERIS_TYPE":"0","PERIAPSIS":"546.150"},{"MEAN_MOTION_DDOT":"0.0000000000000","PERIAPSIS":"546.038","TLE_LINE1":"1 44928U 20001Q   22060.38633402  .00001262  00000-0  10357-3 0  9999","EPHEMERIS_TYPE":"0","COUNTRY_CODE":"US","OBJECT_ID":"2020-001Q","CLASSIFICATION_TYPE":"U","INCLINATION":"53.0520","REV_AT_EPOCH":"11839","TIME_SYSTEM":"UTC","SEMIMAJOR_AXIS":"6925.336","REF_FRAME":"TEME","PERIOD":"95.592","ECCENTRICITY":"0.00016800","NORAD_CAT_ID":"44928","MEAN_MOTION_DOT":"0.00001262","EPOCH":"2022-03-01T09:16:19.259328","ELEMENT_SET_NO":"999","TLE_LINE2":"2 44928  53.0520 102.5813 0001680  58.4405 301.6748 15.06404071118394","LAUNCH_DATE":"2020-01-07","RA_OF_ASC_NODE":"102.5813","MEAN_MOTION":"15.06404071","OBJECT_NAME":"STARLINK-1119","CENTER_NAME":"EARTH","ARG_OF_PERICENTER":"58.4405","MEAN_ELEMENT_THEORY":"SGP4","RCS_SIZE":"LARGE","DECAY_DATE":null,"APOAPSIS":"548.365","OBJECT_TYPE":"PAYLOAD","GP_ID":"197489315","SITE":"AFETR","MEAN_ANOMALY":"301.6748","BSTAR":"0.00010357000000","FILE":"3337314"}];
